#aV2009  2  1  0  0   .00000000      96 DD+AD WGS84 FIT  NGA
## 1517       .00000000   900.00000000 54863  .0000000000000
+   31     2  3  4  5  6  7  8  9 10 11 12 13 14 15 16 17 18
+         19 20 21 22 23 24 25 26 27 28 29 30 31 32  0  0  0
+          0  0  0  0  0  0  0  0  0  0  0  0  0  0  0  0  0
+          0  0  0  0  0  0  0  0  0  0  0  0  0  0  0  0  0
+          0  0  0  0  0  0  0  0  0  0  0  0  0  0  0  0  0
++         0  0  0  0  0  0  0  0  0  0  0  0  0  0  0  0  0
++         0  0  0  0  0  0  0  0  0  0  0  0  0  0  0  0  0
++         0  0  0  0  0  0  0  0  0  0  0  0  0  0  0  0  0
++         0  0  0  0  0  0  0  0  0  0  0  0  0  0  0  0  0
++         0  0  0  0  0  0  0  0  0  0  0  0  0  0  0  0  0
%c cc cc ccc ccc cccc cccc cccc cccc ccccc ccccc ccccc ccccc
%c cc cc ccc ccc cccc cccc cccc cccc ccccc ccccc ccccc ccccc
%f  0.0000000  0.000000000  0.00000000000  0.000000000000000
%f  0.0000000  0.000000000  0.00000000000  0.000000000000000
%i    0    0    0    0      0      0      0      0         0
%i    0    0    0    0      0      0      0      0         0
/*      NGA, ST. LOUIS,MO.                                  
/*   EPHEMERIS COMPUTED FROM  3 DAYS OF DATA                
/* CCCCCCCCCCCCCCCCCCCCCCCCCCCCCCCCCCCCCCCCCCCCCCCCCCCCCCCCC
/* CCCCCCCCCCCCCCCCCCCCCCCCCCCCCCCCCCCCCCCCCCCCCCCCCCCCCCCCC
*  2009  2  1  5  0   .00000000                                                 
P  2  -2789.597669  15388.295064  21358.775068    159.089672                    
V  2 -26358.696639  -7730.897254   1725.723099      -.015517                    
P  3   5912.273708 -22202.286908 -13317.942710    346.866912                    
V  3  13300.337668 -10525.917372  24349.164582       .052271                    
P  4 -17600.822274   8298.862121  18106.607673   -320.300138                    
V  4 -21611.528823  -8562.354105 -16594.344179      -.138583                    
P  5  14993.216383  18449.627934  11671.879900   -621.690992                    
V  5   2166.252669  15362.785489 -26276.961552      -.469295                    
P  6  11406.752642 -21831.600480  -9713.737277     73.134272                    
V  6  11253.355154  -6683.593666  27732.435606      -.134916                    
P  7 -25727.022544  -6593.311385  -1827.354327     23.005987                    
V  7  -1435.695628  -3128.424128  31677.681682      -.002343                    
P  8 -22662.965116   1588.511078 -14218.606660   -188.704297                    
V  8 -16190.924072  -7289.587884  24609.014082      -.015998                    
P  9  17448.531708  14747.265843 -14280.151579     38.050763                    
V  9 -16800.460525  -2906.708419 -24548.597790       .020199                    
P 10   1224.383185  25717.452683   5594.939676    -10.408765                    
V 10  -4461.166751  -6614.040558  30878.385975      -.006791                    
P 11 -19778.267272 -12485.947566 -13091.269296      8.849255                    
V 11  16656.273978  -2072.122110 -23189.417711      -.010825                    
P 12  12074.752831  21413.672527  10266.344637   -320.355480                    
V 12    631.565533  13061.843646 -28090.218944       .035927                    
P 13 -18766.659934   -125.907540  18673.455068    287.020512                    
V 13  17727.233894 -16029.160142  17607.451082       .013406                    
P 14  21060.010047 -15824.587300  -2766.974381   -160.424774                    
V 14  -1459.096652   3914.311912 -32186.947091       .052985                    
P 15   1740.174080  17594.772220 -19772.765322   -250.434760                    
V 15 -19083.721873  16510.406203  13038.989197      -.054091                    
P 16   3469.462886 -23441.407936  11827.423572     77.917996                    
V 16   5324.332861  14209.422857  26956.452641      -.027678                    
P 17 -21559.899960  14344.663901  -5385.573498     45.781290                    
V 17   3197.807840  -6820.596889 -30861.411204       .009826                    
P 18  15970.582386   2986.722941 -20856.828789    -87.615224                    
V 18   4578.470582  26583.199070   6879.120774       .036169                    
P 19  -3121.169869 -16190.995929 -20713.389577     33.086231                    
V 19  21272.584415 -15842.335825   9373.144473      -.005477                    
P 20 -13836.693185 -19151.291133  12057.435436     92.056448                    
V 20  -1096.269155 -15732.167823 -25929.098414      -.010862                    
P 21  25878.513420   3949.536448  -5907.423473     31.187473                    
V 21   6350.772019   5288.521270  29566.951220      -.018000                    
P 22  13123.203823 -10488.386689 -20403.871338    205.764286                    
V 22   5956.654616  25683.805929  -9358.007305      -.005441                    
P 23 -12393.883195  -8805.257649  21751.203509    386.207316                    
V 23  20243.290960 -18873.794179   3623.924690       .007156                    
P 24  21600.281530  13416.987015   7308.682070    162.026900                    
V 24  -9705.144956   -185.756047  29838.878692       .029976                    
P 25 -24036.003959  -9360.457640   6252.414053    212.863540                    
V 25   7879.702811  -1015.239277  30706.585776       .255541                    
P 26  -4787.385718  19230.342591 -17916.928040     41.073744                    
V 26 -17571.151099  13094.962629  19818.411959       .031608                    
P 27 -16477.344485   8790.475547 -18267.680538     21.032047                    
V 27 -23473.024147  -7210.147026  17000.839099       .032203                    
P 28 -13363.371169   7760.327757 -21142.023711    -23.718217                    
V 28  -6116.036755 -27197.675523  -6321.424081       .000282                    
P 29  18474.375809   1506.985318  19113.515390    -13.781672                    
V 29 -17108.261486  16981.816173  15313.293484       .030210                    
P 30  16157.859743  10424.057676  17998.462682    123.453792                    
V 30   4525.681028  23213.577841 -17083.657730       .026124                    
P 31  14806.749467  -9792.602777  20010.479235    -49.892398                    
V 31  23516.597093   8150.018138 -13435.256742      -.014678                    
P 32  -8123.456143 -24633.644436   6669.653387    299.181856                    
V 32   1161.414911  -8117.622846 -30216.041429      -.030715                    
EOF
